{"type": "FeatureCollection", "features": [{"type": "Feature", "geometry": {"type": "MultiPolygon", "coordinates": [[[[127.13880760093443, 37.48170510497286], [127.13884159408309, 37.48174624103062], [127.13884874018117, 37.48175893698816], [127.138861091118, 37.48176487150995], [127.13886115849166, 37.4817648772128], [127.13886186456749, 37.4817649470726], [127.13886197955183, 37.481764958478315], [127.13886198404344, 37.48176498556682], [127.13886198943332, 37.481765021209554], [127.13886208914627, 37.481765602899614], [127.13886212687557, 37.48176563070099], [127.13886601208917, 37.481788284530445], [127.13886597795315, 37.481788283817565], [127.13886593303741, 37.481788283817565], [127.1388650769429, 37.48178816191931], [127.13883312746152, 37.48178361818001], [127.13876796187421, 37.481774352486745], [127.13876792953486, 37.481774348209605], [127.13865117998895, 37.481779347464006], [127.1386511467513, 37.48177934888972], [127.13847045063189, 37.48180256373198], [127.1380771556241, 37.48185309159601], [127.13793216663893, 37.481871718484435], [127.13793213250293, 37.48187172276155], [127.13793130515457, 37.48187159230918], [127.13760937949945, 37.48182092117381], [127.13727424142314, 37.48169092911686], [127.13722412800668, 37.48167412566985], [127.137223898038, 37.481674047968504], [127.13721507298865, 37.48166985352186], [127.13713880332605, 37.48163360049057], [127.13698153976082, 37.48157341397557], [127.13696060721811, 37.481564157523344], [127.13678134301325, 37.48152120856807], [127.13678128641939, 37.481521227102384], [127.13678124689353, 37.48152124421097], [127.13661572691252, 37.48159256987366], [127.1362174273903, 37.48156593111246], [127.13612177477883, 37.481559531791824], [127.13611514521206, 37.48155908839451], [127.13605408402725, 37.481554834061384], [127.13605367349716, 37.481554752795624], [127.13604769341232, 37.481553564462274], [127.13600161073657, 37.48154439925333], [127.13600136369983, 37.481544350066194], [127.13600136998804, 37.48154438428334], [127.13600138076784, 37.481544432757666], [127.1360013906493, 37.48154448836054], [127.13600139873414, 37.48154452471629], [127.13600135112344, 37.481544516162], [127.13576814128916, 37.48149847410471], [127.13576644886317, 37.481498141200035], [127.13571381207906, 37.48148774630413], [127.13571376357005, 37.481487736324105], [127.13556932615046, 37.48145483506473], [127.1356074722107, 37.48160642995269], [127.13570715107126, 37.481629304816], [127.13570761639858, 37.48162942885307], [127.13576701390346, 37.48164306294973], [127.13577458580299, 37.481646669291216], [127.13577469270253, 37.481646695666925], [127.13580014916103, 37.481658810663326], [127.13581717582892, 37.48169019843931], [127.1358619478627, 37.48186167365208], [127.1358639942249, 37.48192498865077], [127.13586230179892, 37.48196797943231], [127.13586360794935, 37.48196763654976], [127.13587742493672, 37.481964008838204], [127.13588576220089, 37.48196181966494], [127.13588579364189, 37.48196181467494], [127.13589130750114, 37.48199515696724], [127.1357670516327, 37.4821598173313], [127.13584786317735, 37.482203157274846], [127.13585466522069, 37.48239218523037], [127.13585334200225, 37.48252536107305], [127.13588387573877, 37.48265296078961], [127.13593102830802, 37.48270427149686], [127.13594481475272, 37.48275593003773], [127.13592633461069, 37.48279079033691], [127.13594274054273, 37.48286107474687], [127.13592908435376, 37.48292998900393], [127.13596045621841, 37.482970814300195], [127.13598521648261, 37.48303802476059], [127.1359865855151, 37.48303824075212], [127.13601628471672, 37.48304282932425], [127.13606072617044, 37.48331797205531], [127.13604059672154, 37.483445895472975], [127.13600278752956, 37.483477396552466], [127.13600275519022, 37.48347740154234], [127.13590874739405, 37.48352160753345], [127.13595648656319, 37.483803115552725], [127.13596375842539, 37.48388278918954], [127.13596485526837, 37.48388237717081], [127.13607572174747, 37.483840679861785], [127.13607575408686, 37.48384067415908], [127.136067053005, 37.48387921075659], [127.13615997473798, 37.48390243278758], [127.13615088917722, 37.484113126571515], [127.13616448338242, 37.48412467090166], [127.13622043315321, 37.484136073376305], [127.13622046549257, 37.48413606838648], [127.13625717604499, 37.48416079584006], [127.13628422701312, 37.48419552432264], [127.13629951364432, 37.48425193784577], [127.13630143154747, 37.48431295051294], [127.13630798565576, 37.48436116425663], [127.13627094362501, 37.484800030001765], [127.13626898889098, 37.484856557120615], [127.13626895744994, 37.48485654999234], [127.13611372587393, 37.48475596162983], [127.13611232989193, 37.484755057052475], [127.13617985086195, 37.48514835969252], [127.13626278871887, 37.48525426304168], [127.13626275637952, 37.48525426874424], [127.13625543421165, 37.485258240589175], [127.13621923120739, 37.485277881687075], [127.13621772113937, 37.48527870143227], [127.1364768581494, 37.48541709567938], [127.1364713919009, 37.4854209862541], [127.1364581192926, 37.48548314346824], [127.136445173671, 37.48557642944624], [127.1363935573731, 37.485726371501386], [127.13641911264631, 37.48580339497243], [127.13640897785326, 37.48583703849743], [127.13638954370043, 37.48586800538212], [127.13643637197787, 37.48594859777457], [127.1366009199817, 37.486669016993986], [127.13674239475752, 37.48738226061827], [127.13672739289225, 37.48750011304416], [127.1366984015631, 37.48749883499244], [127.13669698581819, 37.48749877226599], [127.13659997675066, 37.48749449759987], [127.13659708687041, 37.48749409914423], [127.13657795904304, 37.48749143326927], [127.13661481332592, 37.487670719563695], [127.1366378362483, 37.4877095264747], [127.13671327407093, 37.488034430831114], [127.13677045902526, 37.48826898584189], [127.13680529299707, 37.48839850955403], [127.13683224694714, 37.48849163864145], [127.13683357375884, 37.488491568787914], [127.13688312033831, 37.48848896709977], [127.13692737584077, 37.488490895200165], [127.136928875129, 37.48849095507463], [127.13699256119111, 37.48849373353493], [127.13699259442872, 37.48849372783262], [127.13708572007931, 37.48860461739644], [127.13701014032286, 37.48867760208594], [127.13703690652507, 37.488725649784186], [127.13719851973288, 37.48876304910232], [127.13719855207225, 37.4887630441128], [127.13721419623292, 37.48894808738654], [127.13729042277635, 37.4891026073104], [127.13731675509229, 37.48930189543594], [127.13733384643888, 37.4893366621573], [127.13733381499786, 37.48933666785955], [127.13717666012877, 37.48940628393642], [127.13715720890794, 37.48942986634281], [127.13716812972683, 37.48945757931381], [127.1372717063774, 37.48970857012038], [127.13739626407978, 37.48999359233858], [127.13749219696558, 37.49020629678851], [127.13759956091339, 37.49043422545968], [127.13802318124856, 37.49052851810383], [127.13802321358791, 37.490528513827186], [127.14142820041724, 37.49168384244449], [127.14142836391062, 37.49168358798886], [127.14145278730656, 37.49164544102099], [127.14152103770859, 37.49167067133651], [127.14150737972302, 37.491804756514185], [127.14147794821938, 37.4919093083024], [127.14144442578788, 37.49200269103106], [127.14145615778553, 37.49217783821484], [127.14145801011163, 37.49217801070182], [127.14155125613644, 37.49218673341023], [127.14155128757746, 37.49218672913371], [127.14163310164196, 37.492174201733185], [127.14164879431166, 37.49216157026815], [127.14173514397004, 37.49201865894137], [127.14175086179256, 37.49195854422805], [127.14180449840156, 37.491857658229115], [127.14183583074035, 37.49174247341209], [127.14184402427404, 37.49164948095119], [127.14182217095812, 37.491573102142446], [127.14187225383185, 37.49150753942709], [127.14190271570314, 37.49141046610329], [127.14195120047398, 37.49133697659596], [127.14199709719844, 37.491269797835635], [127.1420255791829, 37.49119507296732], [127.14205228609626, 37.49120691984116], [127.14205267506676, 37.491206538511705], [127.14210814244231, 37.491152175165574], [127.14214968862589, 37.49105689042458], [127.14223855805862, 37.49093199576071], [127.14229633051119, 37.49086714525121], [127.14235132267791, 37.490827075528465], [127.14235429250826, 37.49078283251953], [127.14234533899982, 37.49071157407778], [127.14237368803357, 37.490633784449315], [127.14239556829892, 37.49054392894184], [127.1424081617809, 37.49050607149016], [127.14244312960165, 37.490400432897154], [127.14243500074666, 37.490287006385046], [127.14244236513537, 37.49017428249704], [127.14247111661433, 37.49007009322162], [127.14247425532795, 37.48999530656708], [127.14247511860894, 37.489973410769885], [127.14248377836826, 37.48976788262974], [127.14245243165642, 37.48969430811103], [127.14243891650298, 37.48966242902834], [127.14241901971772, 37.48960442866444], [127.1423993088838, 37.48957011111975], [127.14238595991867, 37.48954691365948], [127.14238373838496, 37.48954311239729], [127.14238328204078, 37.489480673448455], [127.14238671989338, 37.48944471929909], [127.14240371062868, 37.48940036997952], [127.14243610387783, 37.48936942736811], [127.14246184420398, 37.48933644618397], [127.14246187025512, 37.48933641268317], [127.14249600174435, 37.48929268056992], [127.14258503556877, 37.48920085188728], [127.1425850948576, 37.48920079058786], [127.14258966997733, 37.48919607195434], [127.14259576414821, 37.48918984791948], [127.14265088567237, 37.489159147567726], [127.14278337549867, 37.48908285531072], [127.1428834792624, 37.48904137972959], [127.1429908144641, 37.48899719197308], [127.1430005315405, 37.48899303571529], [127.14302922193403, 37.48896595552654], [127.14302926056165, 37.48896591917443], [127.14304981940523, 37.488946512127455], [127.14304985623613, 37.48894648504157], [127.14305211010917, 37.4889426081934], [127.14308806428011, 37.488881207274055], [127.14308683718141, 37.48883040189905], [127.14308687131741, 37.48883039477117], [127.1431562482068, 37.48881525800307], [127.14322487679956, 37.48878132571439], [127.14322493429174, 37.48878129934121], [127.14324165822735, 37.48877785087041], [127.14324649206193, 37.48877492915017], [127.14328192610832, 37.48875350771256], [127.14328196922744, 37.48875348775447], [127.14328199797353, 37.48875347492427], [127.14347003512545, 37.48867165029351], [127.143470090821, 37.48867162178192], [127.1435877404788, 37.48861051074544], [127.14358777641141, 37.48861048365939], [127.14363402617383, 37.48857036354356], [127.14363406120809, 37.48857033431913], [127.14383691157904, 37.488410641275415], [127.14383694840997, 37.48841061418933], [127.14392408050097, 37.48834629537246], [127.14392411014535, 37.48834626543514], [127.14414657702716, 37.48807335872837], [127.14432751928496, 37.48785131412383], [127.14441543740182, 37.48764677093591], [127.14443283148064, 37.48751817755067], [127.1443499735738, 37.48729230639672], [127.14433643057255, 37.487245921459085], [127.14431225062006, 37.487195675235576], [127.14433556369829, 37.487164319710246], [127.14433559424104, 37.487164289772466], [127.14437146217372, 37.48713760381432], [127.14437152236083, 37.48713757957898], [127.14441647585429, 37.48716617157483], [127.14447943428095, 37.48721366853535], [127.14458857958799, 37.48729084229994], [127.14470373911585, 37.487328461166754], [127.14484013661361, 37.48734649506427], [127.14497073279131, 37.48735543574155], [127.14497076423234, 37.48735543075196], [127.14508094619524, 37.48734016466777], [127.14508097673793, 37.48734015682695], [127.14514362704249, 37.487323801577595], [127.1451436863313, 37.487323782331906], [127.1452463368188, 37.48728727757345], [127.14524639341266, 37.48728725048696], [127.14537747917218, 37.48721891334298], [127.14537753307113, 37.48721888340521], [127.14548318932158, 37.48715436397717], [127.14548322884741, 37.48715433902901], [127.14555850856654, 37.487102735564065], [127.14555854719413, 37.487102708477515], [127.14563585620746, 37.48704795081473], [127.14563591100472, 37.487047926579315], [127.14575271894108, 37.48705165526238], [127.14579495682743, 37.48707565896693], [127.14598845483795, 37.4872209377046], [127.1463317190743, 37.48721367209935], [127.14671197323914, 37.48728122872907], [127.14671200468018, 37.48728122373943], [127.14676100238903, 37.487300445177546], [127.147015811316, 37.48780027638906], [127.1470706471759, 37.48791517646417], [127.14716227533486, 37.488169325855445], [127.14717838841612, 37.488198408571485], [127.1473724361956, 37.48908051808663], [127.14820855931595, 37.48980902351427], [127.14845076038789, 37.49005398091392], [127.1484787716551, 37.49008231661968], [127.14849745571469, 37.49007412468368], [127.1484974970372, 37.49007410258764], [127.14849752847826, 37.4900740975982], [127.14857156852227, 37.49010061286668], [127.1485717427954, 37.49010067772927], [127.14858278848017, 37.49009642744643], [127.14858284597236, 37.49009640392483], [127.14860649771546, 37.49008650204068], [127.14860653813966, 37.49008648137019], [127.14860657047898, 37.49008647709353], [127.14863964105785, 37.490117057317825], [127.14873323652733, 37.49015110660769], [127.14890225364971, 37.490219693391545], [127.1491918417512, 37.49032397939551], [127.14940286409632, 37.49039498517257], [127.14961550251057, 37.490482205027405], [127.14964857039452, 37.490507663110115], [127.14965005351303, 37.490514327528246], [127.14967144958646, 37.49052727574253], [127.1497272394572, 37.49054739301213], [127.14974776596141, 37.49055974391816], [127.14978077635317, 37.49062317271659], [127.14978074401382, 37.490623178418765], [127.1497807008947, 37.490623199801874], [127.14977359701744, 37.49062651703767], [127.14977664230624, 37.49062945793031], [127.14978102159327, 37.490633711746696], [127.14979905527257, 37.490651247332345], [127.14985321380274, 37.49062622480161], [127.14985325422691, 37.490626201992946], [127.14985328566796, 37.490626196290776], [127.149853317109, 37.49062623905704], [127.14986930622278, 37.49064772481971], [127.14995578434021, 37.490763933436554], [127.15002442101779, 37.49087014529413], [127.1500674916424, 37.49091198265884], [127.15007433410993, 37.49091862993447], [127.15010870005946, 37.4909520131338], [127.15022644224373, 37.491066381626446], [127.15026998897545, 37.49104421671734], [127.15027002939964, 37.49104419390875], [127.15027006173898, 37.49104418820667], [127.15039061744675, 37.491183029368315], [127.15039058510739, 37.491183035070435], [127.15039054378488, 37.49118305716617], [127.15036188932393, 37.49119796893334], [127.15037391327404, 37.49120963048772], [127.15040770340345, 37.49124245332373], [127.15041725608816, 37.491251732098085], [127.15064525299887, 37.491441015849496], [127.15056733313112, 37.49149256214756], [127.15031634294243, 37.49202446720287], [127.15035757291903, 37.49205419916536], [127.15035825024873, 37.492054686691326], [127.15044209001421, 37.49211514558874], [127.15046094834697, 37.49212874498506], [127.1509483319993, 37.4924802058404], [127.15133081488432, 37.49262180909719], [127.15160523493229, 37.49273436393334], [127.15219541459922, 37.49288327238949], [127.15219902492835, 37.49288418328317], [127.15227001609033, 37.492902094672054], [127.15234730354409, 37.4929198193164], [127.15234734396829, 37.492919835709635], [127.15238405362237, 37.49292825612589], [127.15240441124335, 37.4929300294452], [127.15244780526145, 37.492928404377686], [127.1524478555671, 37.49292840509041], [127.15247925887282, 37.49292722477819], [127.15293796021643, 37.49264483739314], [127.15293801321707, 37.492644807457545], [127.15319064822101, 37.49251395683505], [127.15319070301828, 37.49251392903772], [127.15344458578218, 37.492385778811276], [127.15344464147773, 37.492385749588344], [127.1538306700132, 37.492181475409055], [127.15383072570873, 37.49218144761156], [127.15591706924432, 37.49114748374045], [127.15591712493986, 37.49114745522979], [127.15642847474567, 37.490856603402946], [127.1564285286446, 37.490856573466665], [127.1566964817208, 37.49070236081119], [127.15669652304331, 37.490702336576994], [127.15677226808975, 37.490653675029165], [127.15677430726545, 37.490652365669504], [127.15677436924916, 37.490652326467135], [127.15677439530032, 37.490652310073386], [127.15677470432081, 37.4906521104976], [127.15682912965059, 37.490617146238215], [127.15690172340702, 37.49057051959732], [127.15695753214234, 37.49055683866136], [127.15698784130005, 37.49054941086862], [127.15699999999742, 37.49054669663422], [127.15710231631166, 37.49052385586318], [127.15710623566122, 37.490505560432624], [127.15711071555957, 37.490103077645706], [127.15711261998791, 37.48993099624244], [127.15711265053065, 37.48993097984859], [127.1571862072811, 37.48991935444623], [127.15718623962044, 37.48991935302067], [127.15725269878179, 37.48991512624916], [127.15732045061885, 37.48993179170218], [127.1573204829582, 37.48993178742551], [127.15735260311949, 37.48994318901383], [127.1575871083244, 37.48989188612936], [127.15758714066375, 37.4898918847038], [127.15791489638507, 37.48987901834882], [127.15814214050752, 37.48988070050494], [127.15814223303401, 37.489880705494386], [127.15814226447505, 37.489880699792174], [127.15837960476301, 37.48988254374886], [127.1584040362438, 37.489824850763405], [127.15840748487616, 37.489800008288846], [127.15840750374075, 37.48979998120325], [127.15842636836173, 37.489802738231504], [127.15844721466624, 37.48976334507797], [127.15846263873966, 37.48973151948321], [127.15848034273729, 37.48970843041555], [127.15850703348099, 37.48967508301221], [127.15850706043041, 37.48967505164987], [127.1585064513727, 37.48967467102537], [127.15851315909295, 37.48966631011584], [127.15859663414237, 37.48957141408334], [127.15874897583818, 37.48942488898382], [127.1589104075863, 37.489293213019266], [127.15896226373435, 37.489272061162595], [127.15900056789812, 37.48925966513827], [127.15912536185736, 37.48919409183886], [127.15937737792213, 37.48896859568857], [127.1593891898698, 37.488958960237206], [127.1593896147729, 37.48895861382281], [127.15942727035298, 37.48892789413078], [127.15944701711956, 37.48890876648656], [127.15942794139448, 37.488860124441125], [127.15942780485058, 37.48885977802631], [127.15939506215679, 37.48887590841128], [127.15939372995526, 37.488876564175875], [127.15939369312429, 37.48887658199556], [127.15963747163791, 37.48849909728883], [127.15962997699349, 37.48847828734716], [127.1596775095501, 37.48845047992435], [127.15969284558864, 37.48843063794044], [127.15972219265063, 37.4883760330758], [127.15972222768492, 37.48837596892449], [127.15974183880594, 37.48833948107443], [127.15974186845033, 37.48833946895696], [127.15989752223457, 37.488278454588624], [127.15989755457389, 37.48827845102466], [127.15992928756133, 37.488274988274746], [127.15992931990067, 37.48827498898754], [127.15992955525928, 37.48827499896666], [127.16006294789244, 37.48828012537608], [127.1600629811301, 37.488280123237715], [127.16009788337382, 37.488278456727], [127.16009791750983, 37.488278452450245], [127.1600981762246, 37.48827842180014], [127.16020097852743, 37.48826633496326], [127.16020100996847, 37.48826632498413], [127.1602304836929, 37.48825727892242], [127.16034272908598, 37.48819379394262], [127.16042498422328, 37.48811178265931], [127.16050964774387, 37.48804616558454], [127.1606057279534, 37.48797891187218], [127.1606663112345, 37.487914859269594], [127.16069039416897, 37.4878611272046], [127.16070746934587, 37.48780857620686], [127.16072086861664, 37.487782249016256], [127.16074345405951, 37.48776266061103], [127.16077054724848, 37.48774785365221], [127.16082113317876, 37.4877091265946], [127.16085039040925, 37.48769503313683], [127.1609121936025, 37.48767395495872], [127.16096911175723, 37.48764784512448], [127.16096914409655, 37.48764784084768], [127.16110893992108, 37.48762954685109], [127.16110897046377, 37.48762953687191], [127.16113877027671, 37.48762013575888], [127.16113880261605, 37.48762012934369], [127.16123969959212, 37.48760017736807], [127.16123973282984, 37.487600176655285], [127.16124043710896, 37.48760015740968], [127.16127510399413, 37.48759923076997], [127.16175214174932, 37.487657598356826], [127.16175217588531, 37.48765759265444], [127.16175281458747, 37.487657493575334], [127.16190846567675, 37.48763332967786], [127.16190849532116, 37.48763331827308], [127.16237100013171, 37.48745898799521], [127.16243282668115, 37.48739547311211], [127.16256518894667, 37.48727041408405], [127.16262825606952, 37.487200404687485], [127.16269861751248, 37.48716165667475], [127.16284569687727, 37.487104788441066], [127.16284572921664, 37.487104786302645], [127.16284667334604, 37.48710472357584], [127.16289432448026, 37.487101661367674], [127.16302814740645, 37.48713742561329], [127.16302818154243, 37.48713742204926], [127.1630621270804, 37.487149448480466], [127.16313170878564, 37.48717764985528], [127.1632109806179, 37.487182589585416], [127.1632883525133, 37.48719807168132], [127.16332897073723, 37.48721035898884], [127.16341403849965, 37.487228704409915], [127.16341453526803, 37.487228541890744], [127.16345718548108, 37.487214594467034], [127.16345721871876, 37.48721458662619], [127.1635019368536, 37.48720327087062], [127.16350196829464, 37.48720326516817], [127.1636172338237, 37.48718236220103], [127.1636182282587, 37.48718218186168], [127.1637502653341, 37.48715823379008], [127.16380198044673, 37.487131589885216], [127.16386238675963, 37.48709177262987], [127.16391802212019, 37.48704214145343], [127.16400765512088, 37.48697588476518], [127.16409729710477, 37.48691368246059], [127.16412213282744, 37.48689517800629], [127.16415481802909, 37.4868471996986], [127.16417460701645, 37.48679590537995], [127.16427257817965, 37.48671070916039], [127.16442320499155, 37.48662094943989], [127.16448360232138, 37.48652553987954], [127.16451591023053, 37.486408095069734], [127.16468849905453, 37.4862733380019], [127.16468853049557, 37.48627332944815], [127.1647138117826, 37.48626672524074], [127.16471384412195, 37.486266724527916], [127.16492898434427, 37.48626245834503], [127.16510214270012, 37.48618888251217], [127.16536942653146, 37.485874153422415], [127.16459413372888, 37.484005920682606], [127.16464954720547, 37.482347012659424], [127.16414589057179, 37.48184161463605], [127.16196495982666, 37.48136815072009], [127.16141666410985, 37.48123185191145], [127.15996337413476, 37.48138553307747], [127.15975538270546, 37.48151329798501], [127.1598055895467, 37.481668385750616], [127.15977934885895, 37.481716714544994], [127.15972921747617, 37.481749397555255], [127.15972918603515, 37.48174940254523], [127.15954351055412, 37.48183641150934], [127.15943375798598, 37.48194936468643], [127.15943372564664, 37.48194936896354], [127.15934427500389, 37.48198723502872], [127.15921522662343, 37.48201858417264], [127.15918981508067, 37.482033661725374], [127.15921908848084, 37.48218111804916], [127.15920150306084, 37.482259618637656], [127.15914336050241, 37.4823536706771], [127.1591334404067, 37.48247504823106], [127.15909028803543, 37.48260079534299], [127.15906139911418, 37.48263282214717], [127.1590618644415, 37.48263308946483], [127.15906182311902, 37.482633135799894], [127.1589604572223, 37.482745578800426], [127.15896038356045, 37.48274560802712], [127.15875972328223, 37.48283820168636], [127.15868865845842, 37.48307129172412], [127.15854940791127, 37.48330735928332], [127.1585005611194, 37.48336040245579], [127.1585004874575, 37.48336043096937], [127.15844089861147, 37.48338391263537], [127.15844083842435, 37.48338393259489], [127.15825569115273, 37.483426588928054], [127.15825565971167, 37.48342659676929], [127.15810791918682, 37.48343517080337], [127.15777795360987, 37.483413264529275], [127.15759984194355, 37.48344250592154], [127.15759981050249, 37.48344251162425], [127.15759977007829, 37.483442535147944], [127.1574205885185, 37.48353716737456], [127.15736016603584, 37.48361491306881], [127.15731405641064, 37.48373372592615], [127.15736671385598, 37.483991433754575], [127.15734702907314, 37.4840402928203], [127.15729792087154, 37.48407630731031], [127.15729788853214, 37.48407631230016], [127.15729784631134, 37.48407633368517], [127.15722267888164, 37.484104516260736], [127.15722264923723, 37.48410452695321], [127.15711409232671, 37.48409088261323], [127.15697956062975, 37.48409826542682], [127.15697950313758, 37.4840982882375], [127.15664168628508, 37.48424421930358], [127.1562895925078, 37.48428603614306], [127.15628956016843, 37.484286039707186], [127.15628951704933, 37.484286060379304], [127.15614870792518, 37.48433856466961], [127.15614867828076, 37.48433857607489], [127.15614863336499, 37.48433858819302], [127.15595318601032, 37.48437765487959], [127.15595315367092, 37.48437766129507], [127.15586225135074, 37.48437057362092], [127.15561841265, 37.484391431753664], [127.15561835425952, 37.48439145171293], [127.1553022721453, 37.48448815778424], [127.1553022416026, 37.484488167051026], [127.15516418222155, 37.48447825087975], [127.15492425029399, 37.48452207491508], [127.15492421795464, 37.48452207990488], [127.15441260045088, 37.484460846431304], [127.15426686227075, 37.48441373051041], [127.15378507063105, 37.484340112938256], [127.15334889094991, 37.48424129455472], [127.15297755705588, 37.484170591584785], [127.15242751231918, 37.48412119869237], [127.15202417504483, 37.484103601695836], [127.15173738160216, 37.48407315373534], [127.15131201134884, 37.484062159704685], [127.15088774332835, 37.48403719840897], [127.15033040876314, 37.48385463789511], [127.15017188665821, 37.483794470277275], [127.14978210585981, 37.48376153439183], [127.14965090601426, 37.48378799986389], [127.1496508745732, 37.48378800627943], [127.14965083414901, 37.48378803122869], [127.14954122710793, 37.48385201893742], [127.14934835432489, 37.48385740084548], [127.14927736585786, 37.48381604497092], [127.14925331077119, 37.48377255626733], [127.14925002024229, 37.48376661406378], [127.14922532555511, 37.48362834150591], [127.14925665609728, 37.483578024416815], [127.14931984000113, 37.483529499370064], [127.14931987144217, 37.48352947014367], [127.14944449472151, 37.48338635482517], [127.14944453155246, 37.48338632845009], [127.14959714633609, 37.483032680574205], [127.14961144212549, 37.48299959037872], [127.14960297640225, 37.482835082988515], [127.14959651302378, 37.48271074841972], [127.14967430982237, 37.48208769595401], [127.14969876645596, 37.482064899644854], [127.14969880149025, 37.48206487184359], [127.1497834416546, 37.48200523671146], [127.14978349465524, 37.48200520534592], [127.14985267481356, 37.481968566110766], [127.14985271074617, 37.48196854044804], [127.1498725482426, 37.48195079253232], [127.14987259495499, 37.48195076615675], [127.1503688162331, 37.48189148807352], [127.15050504305101, 37.4818851914318], [127.1506410524766, 37.48189132625562], [127.15064108481597, 37.4818913205528], [127.15072831212835, 37.48192031375466], [127.15094815772615, 37.48200454952103], [127.151138984147, 37.48210738279513], [127.15124149629396, 37.48214599513606], [127.15179934649214, 37.48231719770688], [127.15185898474553, 37.4823450537479], [127.15209246676933, 37.48241441044744], [127.15264672819798, 37.482485241253464], [127.15288553902805, 37.48249701038243], [127.15315392688888, 37.482542256286024], [127.153372628033, 37.48256161794873], [127.1536690469239, 37.48260204924167], [127.15400087740338, 37.482605766028215], [127.15400090884438, 37.48260575889976], [127.15409779574101, 37.482583135257734], [127.15409785592816, 37.482583115298], [127.15418037606848, 37.48254906398438], [127.15418041559434, 37.48254903974754], [127.154532954936, 37.48229569956827], [127.15453299446187, 37.482295674618534], [127.1545378345846, 37.482229715256715], [127.15450640522776, 37.48211938294766], [127.15445088574997, 37.48200538854918], [127.15438567973843, 37.481909605974565], [127.15431529224435, 37.48182302124435], [127.1542870366354, 37.48177215118936], [127.15401276301284, 37.48144454138872], [127.15378704512804, 37.48114164506007], [127.15365221159719, 37.480997929214496], [127.15349599906084, 37.480848384002286], [127.15344884649159, 37.48078924904314], [127.15338071736208, 37.48058832285302], [127.15325103207611, 37.48041775006077], [127.15316279146404, 37.48033470085827], [127.15305402344949, 37.48021987253037], [127.15293717598719, 37.48007928584367], [127.15285133836854, 37.48001010875902], [127.15263802891276, 37.47985766231275], [127.15244822477467, 37.4797557312932], [127.15191096036956, 37.47950964585956], [127.15191093252179, 37.4795096323149], [127.15163855254785, 37.47938492009001], [127.15140087090006, 37.47935936340403], [127.15074433088648, 37.479182609987845], [127.15031350246949, 37.47908512428646], [127.14997802123673, 37.4788996659234], [127.1497217390727, 37.4789498970528], [127.14972170763168, 37.478949903468745], [127.14964706751303, 37.47888143109261], [127.14964702619052, 37.47888145247912], [127.14954168704539, 37.478916065789925], [127.14954165650263, 37.47891607577028], [127.14946880043816, 37.47883579302503], [127.14925234148897, 37.47872219996121], [127.14925229387828, 37.478722175010255], [127.14919978734991, 37.47869467263521], [127.14908097257717, 37.47846055807062], [127.14928616036448, 37.47837121617101], [127.14928620348363, 37.4783711947844], [127.1492375318632, 37.47828466940105], [127.14905661385993, 37.478212365348206], [127.14905829460783, 37.47820670072932], [127.14908794889365, 37.47810672861911], [127.14908795967345, 37.47810669154884], [127.14909052705853, 37.47809809052635], [127.1490905656861, 37.47809807840721], [127.150662764757, 37.477846973739574], [127.15078518896057, 37.477840155632315], [127.15082091316276, 37.47784695520438], [127.15082094550218, 37.47784694878836], [127.15107791487736, 37.47779581225596], [127.15184219972447, 37.47769870756961], [127.15211928597216, 37.47769312845914], [127.15238439049058, 37.477695048283415], [127.15238442103332, 37.47769503830288], [127.15268205264991, 37.477599446249194], [127.15268211193867, 37.47759942628812], [127.15285501517299, 37.477537957588744], [127.15285505559719, 37.477537935488975], [127.15300289044522, 37.47742370668695], [127.15300292907273, 37.47742368102267], [127.15315983870171, 37.47719489567412], [127.15316426020955, 37.47708893242434], [127.15311810117701, 37.47696086908808], [127.15311940642913, 37.47687914631889], [127.1530760968526, 37.4767623422166], [127.15307807943447, 37.47673657076268], [127.15308955720884, 37.47670970641857], [127.15317240343762, 37.476602680252846], [127.1531724321837, 37.47660264959792], [127.15319271344785, 37.476585983310216], [127.1531927502788, 37.47658595621984], [127.15318229568555, 37.476550831389666], [127.15328143465861, 37.47652008948595], [127.15328147957437, 37.4765200730891], [127.15328150921876, 37.47652006096975], [127.1533257153139, 37.476502194130504], [127.15332577190777, 37.47650216632719], [127.15343863893501, 37.476437179958715], [127.15343869642716, 37.47643715358119], [127.15362084512236, 37.47636495253811], [127.15362090530951, 37.47636492829928], [127.15459461889037, 37.4759447297763], [127.15459467728088, 37.47594470625024], [127.15530391426566, 37.4756717050519], [127.15530397265617, 37.475671681525775], [127.15559069064034, 37.47554185557422], [127.1555907292679, 37.475541837038456], [127.15565720370063, 37.47544762314824], [127.15565723065006, 37.475447592492856], [127.15572342121514, 37.475378700564505], [127.15572345624946, 37.475378672760804], [127.15584777949151, 37.47514262791798], [127.15590367087187, 37.47483423223314], [127.15604023096473, 37.47455726597162], [127.15627941100237, 37.47426655986921], [127.15638248190145, 37.47408712520237], [127.1565507983379, 37.473861654036014], [127.15670015133874, 37.47343113952922], [127.15691496187938, 37.47296236408461], [127.15691498343892, 37.47296232202116], [127.15703068015932, 37.47270990325613], [127.1571100597894, 37.472555728001986], [127.15720814054707, 37.472419721824934], [127.15730101826259, 37.47236791069768], [127.15730105868683, 37.472367887170485], [127.15732739279936, 37.47230360587512], [127.15757508796759, 37.47217167159243], [127.1575751445614, 37.47217164806516], [127.15765617888829, 37.47216946858629], [127.15765621122763, 37.472169469299246], [127.15789222650056, 37.47217249005552], [127.1578922588399, 37.472172490055485], [127.1581821918945, 37.47217202236234], [127.15818222243719, 37.472172013094], [127.15841398059398, 37.47210577387612], [127.1584140398828, 37.472105753200665], [127.15857538629095, 37.47203960874618], [127.15857544557977, 37.47203958735772], [127.15876991377078, 37.47197384566078], [127.15876995509329, 37.47197382498527], [127.1588354997697, 37.47192745335216], [127.1588355545669, 37.47192742768599], [127.16321181515282, 37.47206954900053], [127.1632118663568, 37.47206954971349], [127.16300362070425, 37.471538150658176], [127.16276832767686, 37.47093742046315], [127.16167137781538, 37.46936773978372], [127.16178630108634, 37.46925742199447], [127.16178633881557, 37.46925739561441], [127.1618919878795, 37.46907741205089], [127.16173531181246, 37.469070237368314], [127.16013111834441, 37.46906348048937], [127.16042291270824, 37.46753760087237], [127.15950609212928, 37.46643068674084], [127.15887775921557, 37.46569720687197], [127.15859499741194, 37.465345831789485], [127.15825754797042, 37.46494974826293], [127.157892635234, 37.46455370042803], [127.15750477323705, 37.46420903807332], [127.15746978565336, 37.464180252620224], [127.15559391110064, 37.46419568743132], [127.15412442539933, 37.464504649653605], [127.15412439395827, 37.46450465607077], [127.1533374419216, 37.46455198062469], [127.15238183388531, 37.46427416413071], [127.15120075050929, 37.46360261676663], [127.14874552188714, 37.46105441845679], [127.14772901436278, 37.46005232201643], [127.14742181029852, 37.45993989621334], [127.14708402758203, 37.45984670230636], [127.14693428471239, 37.45980543653918], [127.14673322378549, 37.45958104323677], [127.146733000105, 37.45958079366331], [127.14673295968076, 37.459580817907586], [127.14630515319644, 37.45981966646088], [127.1462125368906, 37.4598713750471], [127.14573278352829, 37.46013922289781], [127.14545500737445, 37.4602943029635], [127.14540833540386, 37.46032036031909], [127.1453892524923, 37.46033110399311], [127.14537248453924, 37.460340466468764], [127.1453724306403, 37.46034049641728], [127.14514503021091, 37.46046592281662], [127.14513766043235, 37.46046999438111], [127.1450982854768, 37.460491748368405], [127.14509256859837, 37.46049497495738], [127.14509252727585, 37.46049499848832], [127.1449787188142, 37.4605601891037], [127.14487986730201, 37.46061695275328], [127.14487981340307, 37.460616982701666], [127.14485395719427, 37.460631340106126], [127.1447505278674, 37.46068894368223], [127.14456163372273, 37.46079405526265], [127.14431616727471, 37.46093067371326], [127.1441243068929, 37.46103739859313], [127.1440610574121, 37.46107258205326], [127.14406099003845, 37.46107261984504], [127.14386197637211, 37.461183456691934], [127.14373655808372, 37.46125330720917], [127.14373597328047, 37.46125363307352], [127.14373591938154, 37.46125366230861], [127.14344020476979, 37.46142168832972], [127.14339702095747, 37.46144622364534], [127.14339696616022, 37.461446254306445], [127.14311219033371, 37.46160493540478], [127.1427609319896, 37.46180066033452], [127.1424133926708, 37.461994341167795], [127.14209636552893, 37.4621710175807], [127.14203356520575, 37.46220601511651], [127.14202896942476, 37.4622085763633], [127.14202891462752, 37.46220860631109], [127.14193294850404, 37.46226404815653], [127.14191707437466, 37.462273221434224], [127.14191702137404, 37.46227325138194], [127.14135950265423, 37.46258355635624], [127.1413594487553, 37.462583587016866], [127.14087264271966, 37.46285570835856], [127.14069833002867, 37.46295314891637], [127.14068444117605, 37.46296091386578], [127.14063148369344, 37.4629905290475], [127.1405277273798, 37.46304856860896], [127.14052742913915, 37.46304873617194], [127.14052737344356, 37.463048763980254], [127.14040048371477, 37.46310312852225], [127.14040042622257, 37.46310315561751], [127.13993303727185, 37.46337495776948], [127.13993301122069, 37.463374972743146], [127.13993297079651, 37.46337499556013], [127.13956224955345, 37.463573584372035], [127.13956015737716, 37.46357470596661], [127.13956010078333, 37.46357473377473], [127.13932731675048, 37.46368267986265], [127.13932660348816, 37.4636830107076], [127.13932654509762, 37.46368303566357], [127.1392574826186, 37.463713814220334], [127.13925742512644, 37.463713840602345], [127.13924523588636, 37.463718808265654], [127.13885162017998, 37.46387923288101], [127.13885155819624, 37.46387925783692], [127.13885152945015, 37.46387926924536], [127.13885148363605, 37.46387928778399], [127.13862032196063, 37.46397679331923], [127.1383603845517, 37.46408643582397], [127.13835310550294, 37.46408950467953], [127.13835304711247, 37.46408952820931], [127.13833925887116, 37.46409523525351], [127.13818959684988, 37.46415717847367], [127.13818087241184, 37.46416078922405], [127.1381808005466, 37.464160818458026], [127.13817771034205, 37.464162141116354], [127.13817768069761, 37.464162153950774], [127.13817763668023, 37.46416217248937], [127.13798037562697, 37.464245717388415], [127.13798031723645, 37.46424574234418], [127.13712200303361, 37.46460751984217], [127.13681496785266, 37.46473693341004], [127.13681490856385, 37.46473695765266], [127.13667742949447, 37.464792963046065], [127.13661957619354, 37.46481653111724], [127.13661954654914, 37.46481654252553], [127.13661950163336, 37.46481656035096], [127.13654094396178, 37.46484798158224], [127.13654088557126, 37.464848004398775], [127.13650107133958, 37.464863614474105], [127.13650101205077, 37.464863638003656], [127.13648644586843, 37.46486978777211], [127.13625935805283, 37.46496570412964], [127.136259298764, 37.46496572765917], [127.13614516870548, 37.46500700697782], [127.1361451399594, 37.46500701838606], [127.13614509324698, 37.46500703335938], [127.13613643528427, 37.46501058560148], [127.13589362066297, 37.465110185210406], [127.13589359101857, 37.46511019733164], [127.13590152134591, 37.46512162552408], [127.13590147732845, 37.46512164548847], [127.13570684744067, 37.46520258966844], [127.13546791533807, 37.4653019565795], [127.13546785604926, 37.46530198010892], [127.13532254097562, 37.46536340967377], [127.13531747896899, 37.46536555013544], [127.13531744932457, 37.46536556296963], [127.13531714569402, 37.46536522642801], [127.13531710526983, 37.46536524781837], [127.13530426564945, 37.465370672412504], [127.13529898086065, 37.4653729055655], [127.13529816788531, 37.46537324852419], [127.13509223629296, 37.46546023662603], [127.1350921788008, 37.46546026158138], [127.13445371558565, 37.46572846516724], [127.13445365809346, 37.46572848940949], [127.13437079479671, 37.46576352306957], [127.13437075077925, 37.46576354160777], [127.13414286975126, 37.46585982045231], [127.13414281225906, 37.46585984469456], [127.13391346068893, 37.46595513447545], [127.13391340140011, 37.46595515800464], [127.13373657612127, 37.4660306553462], [127.1337365186291, 37.46603067958837], [127.13363957603694, 37.46607025281075], [127.1330546578026, 37.466309015751435], [127.13305459851378, 37.466309040706534], [127.1327807641674, 37.46643762139519], [127.1327807066752, 37.46643764777625], [127.1324311560285, 37.466576856227235], [127.13243109673971, 37.46657688046926], [127.1321454234962, 37.46672538402825], [127.13214536869899, 37.46672541112225], [127.13190789815526, 37.46683601998617], [127.1319078406631, 37.46683604708007], [127.13185652260583, 37.46686156740769], [127.1318564956564, 37.46686158095466], [127.13185645253728, 37.46686159949259], [127.13157679800617, 37.46695045177516], [127.13157676746344, 37.466950461757136], [127.1315767225477, 37.46695047673006], [127.1314343261004, 37.466990976360826], [127.13143429555771, 37.466990985629806], [127.13143425064193, 37.466990997750734], [127.13132382793057, 37.46702128226539], [127.13132379648957, 37.46702129010837], [127.1313237506755, 37.467021305081275], [127.13116463658078, 37.467086784473665], [127.13116459256332, 37.46708680229857], [127.13109924821127, 37.46711370076027], [127.13109918892245, 37.46711372500212], [127.13096813101068, 37.467177715580874], [127.13100911484888, 37.46721209403305], [127.13100908250954, 37.46721209973703], [127.13100903939042, 37.46721212255283], [127.13089670057255, 37.46726727834253], [127.13089667182646, 37.46726729188938], [127.13089663050395, 37.46726731256618], [127.13085549754543, 37.467286472131384], [127.13085542657853, 37.467286504929106], [127.1306745355247, 37.46737077501542], [127.13067449150725, 37.46737079497922], [127.13053284425493, 37.4674366975828], [127.1305138224288, 37.46744554795347], [127.13051376493661, 37.46744557290817], [127.13036044228053, 37.46750869834429], [127.13036041083953, 37.46750870690016], [127.13036036502547, 37.46750871902102], [127.13010417179461, 37.46757113925587], [127.13010414035355, 37.46757114638578], [127.13007173991791, 37.467575951943864], [127.13007170578193, 37.467575956934795], [127.13002993052795, 37.46758545611051], [127.1300298972903, 37.46758546324042], [127.12991862207774, 37.46760702193709], [127.12991859063669, 37.467607027640994], [127.12980640543076, 37.467625074141246], [127.12980637219309, 37.46762507984517], [127.12969339018146, 37.467639523601704], [127.12969335694385, 37.46763952859264], [127.12938269975564, 37.46767256783751], [127.12938266741631, 37.46767257140245], [127.12931626125554, 37.46768913130333], [127.12931623071283, 37.46768913985918], [127.12931618579707, 37.467689154118986], [127.12926801813153, 37.46770900303692], [127.12924768207013, 37.46771073702742], [127.12924764883245, 37.46771073987938], [127.12924760750992, 37.46771076198205], [127.12922247534327, 37.46772022763013], [127.12922241605445, 37.46772025115877], [127.12918451882753, 37.46773621427705], [127.12918446133537, 37.46773623851872], [127.12914599906817, 37.46775139310393], [127.12914594067763, 37.46775141663257], [127.12891703467191, 37.46785102043291], [127.12891697717976, 37.467851046100506], [127.12859695685135, 37.46800768016786], [127.12859692990187, 37.46800769371461], [127.12859688678274, 37.46800771367823], [127.12851628993546, 37.46804030215299], [127.12851622974836, 37.468040324968555], [127.12826652684545, 37.46813192726124], [127.12826649720105, 37.468131938669025], [127.12826645228527, 37.468131952215735], [127.12787667777509, 37.46821577715958], [127.12787664633403, 37.46821578428939], [127.1277436372815, 37.46824021470576], [127.12740103690012, 37.46830314197434], [127.12740100366244, 37.468303148391186], [127.12728022247755, 37.468322977895525], [127.12717897246357, 37.46833959968189], [127.12717894012421, 37.46833960538578], [127.12681639714354, 37.46837459504321], [127.12683170263938, 37.46858530480252], [127.12683170802926, 37.468585381804466], [127.12683860978555, 37.468680362242786], [127.12685477047754, 37.468894420711955], [127.12685477407082, 37.4688944620647], [127.12687664175975, 37.469184162376685], [127.12688335756482, 37.46921190638532], [127.12696402268408, 37.47028511812895], [127.12696408736275, 37.47028640930845], [127.12696617145423, 37.47031413579683], [127.12696631877793, 37.470315663680125], [127.12697041419733, 37.47037014342881], [127.12700955469256, 37.47085997528101], [127.1270402600073, 37.4711045656079], [127.12706423783885, 37.47138267968763], [127.12707563566318, 37.47158308735928], [127.12712841348275, 37.472510936613205], [127.12716196555861, 37.47307269422939], [127.1271619745418, 37.473072858918165], [127.12716206796654, 37.47307441526257], [127.12716207425476, 37.47307452291625], [127.12716818998523, 37.473176915764206], [127.12718082389136, 37.47336322959326], [127.127321443471, 37.4734903024121], [127.12733358689704, 37.47350050236356], [127.1275604258793, 37.47369106018601], [127.12775388526225, 37.47384447453965], [127.12778084370395, 37.47386327524073], [127.12792467655736, 37.47396358453999], [127.12811988496016, 37.47419037003752], [127.1281861662551, 37.47423516968794], [127.12828144965894, 37.47429152799356], [127.1283151840928, 37.47431807096415], [127.12870496848447, 37.47457129489272], [127.12878767008449, 37.474625022256994], [127.12886604449976, 37.47467575387997], [127.12894540167196, 37.4747269588491], [127.12951325191588, 37.475093353105656], [127.12954915308623, 37.47511914081042], [127.12973818736806, 37.47524106551715], [127.13014325030609, 37.475502325150515], [127.13043366755264, 37.47545155131368], [127.1304337546892, 37.47545153634246], [127.13053516011173, 37.475433802563046], [127.13053524635, 37.475433792582194], [127.13063350856737, 37.475416603466435], [127.13068479877685, 37.47540763712131], [127.13068763475816, 37.47540716231918], [127.1306904698412, 37.47540674882784], [127.13069331660233, 37.4754063923698], [127.13069617414327, 37.47540609508378], [127.13069904066734, 37.47540585483105], [127.13070189820826, 37.475405678740785], [127.13070479258009, 37.47540555041587], [127.13070767257891, 37.47540548696633], [127.13071055617095, 37.47540547983719], [127.13071343616977, 37.47540553259297], [127.13071631527023, 37.475405643094945], [127.13071915753983, 37.47540581847234], [127.13071918987917, 37.4754058120561], [127.13087457776206, 37.47537687692443], [127.13096584659492, 37.4754312560276], [127.13102390920332, 37.475484650555096], [127.13195153831178, 37.47633768740655], [127.13195342836714, 37.47633940765166], [127.1320801429245, 37.476452524551654], [127.1321026663836, 37.47647263206613], [127.13210465705029, 37.47647437369532], [127.13210663154727, 37.476476068985555], [127.13226084353548, 37.47660583842054], [127.13226275245545, 37.47660741322689], [127.13226464430743, 37.47660894383316], [127.13240841248212, 37.476723007774034], [127.13242365060434, 37.47673509719132], [127.1324258020694, 37.476736771088525], [127.13243219987086, 37.47674174786709], [127.13288591646298, 37.47714749428901], [127.13294061847388, 37.47719498264781], [127.13299471052872, 37.477242910121966], [127.13304819442409, 37.477291270294536], [127.13305973867384, 37.47730192526913], [127.13306143648971, 37.47730343233552], [127.13306367868462, 37.47730556176183], [127.13310105938027, 37.47734006031315], [127.13315330449888, 37.47738927304791], [127.13320491810185, 37.47743890564642], [127.13322758349479, 37.47746115514951], [127.13323045720539, 37.47746388269145], [127.1332332338979, 37.47746670290988], [127.1332559010875, 37.477488953117586], [127.13330624716757, 37.47753940761871], [127.133355947359, 37.47759026629738], [127.13339064209187, 37.477626519864586], [127.13339276660756, 37.47762867708459], [127.1333942569126, 37.47763029749467], [127.13340499986508, 37.47764152344964], [127.13345339929593, 37.47769317337148], [127.13350114026173, 37.47774521035892], [127.13354821916911, 37.47779763155967], [127.13386287565696, 37.47815163499404], [127.13387779667386, 37.478159699917185], [127.1339863104652, 37.478276978758], [127.13399217826064, 37.47828372482359], [127.13412338798767, 37.478434591158354], [127.13424138439518, 37.478579303558256], [127.13427136027789, 37.47861606564588], [127.13439112097666, 37.47877234994112], [127.13439192586715, 37.47877234851532], [127.13446279755316, 37.47877227152387], [127.13453913369105, 37.478787043904504], [127.13457028816343, 37.47881124702024], [127.1346464688928, 37.478864410297355], [127.13464656501252, 37.47886445734763], [127.13464658477544, 37.47886448657585], [127.13482080673661, 37.47894856467578], [127.13476015338695, 37.478919273761655], [127.13487911278843, 37.47897668645187], [127.13487983144063, 37.47897665508506], [127.13489066332635, 37.47897622165278], [127.13490215637214, 37.47897575685369], [127.13490224800029, 37.47897580889408], [127.1350137567748, 37.47903635750655], [127.13504827004802, 37.47905370761383], [127.13507532640605, 37.47906547229314], [127.135048238607, 37.479053712604006], [127.13508399245359, 37.47906925911795], [127.13512099855173, 37.479082815977726], [127.13515910688268, 37.47909449225522], [127.1365526310436, 37.47951925829186], [127.1365527002139, 37.47951928110388], [127.13658597381202, 37.47953041124961], [127.1366621275919, 37.47955589801519], [127.13676678850905, 37.47959422224691], [127.13673407995124, 37.4795822281047], [127.13677008802107, 37.47959541346296], [127.13681064246455, 37.47961170553244], [127.13677011047896, 37.47959543983935], [127.13687606856334, 37.47963800423581], [127.13698017701655, 37.47968356553579], [127.13708201902033, 37.47973201181251], [127.13718192605299, 37.479783345199024], [127.13727925402246, 37.47983738390647], [127.13737432632223, 37.47989421775108], [127.13734612461216, 37.47987733548394], [127.13737435776324, 37.47989421347384], [127.13746670457445, 37.47995357797345], [127.1375563438634, 37.480015643498405], [127.13764317681537, 37.48008005503205], [127.13772718726075, 37.4801469929246], [127.13780815062067, 37.480216186278575], [127.13788595191085, 37.48028772633502], [127.13796059113112, 37.48036125237556], [127.13796272552827, 37.48036345799171], [127.13796066209807, 37.48036127732601], [127.13798055978155, 37.48038185713349], [127.13802778511439, 37.48043254991797], [127.13802442182197, 37.48042897773556], [127.13803184280454, 37.48043694403712], [127.13803807262106, 37.48044397362924], [127.13803536330214, 37.48044087764326], [127.13807877708315, 37.48048986306979], [127.13809801809826, 37.48051246453384], [127.13809671284614, 37.48051097250239], [127.13809982011873, 37.480514621670544], [127.1381642949016, 37.48059401580601], [127.13822504257439, 37.48067521554631], [127.13828133999323, 37.48075684505605], [127.13828094114125, 37.4807562170219], [127.13828232095352, 37.48075821732127], [127.13833583898489, 37.48084266896986], [127.13835414665037, 37.480874325125505], [127.13833580125562, 37.480842663979814], [127.13838548437904, 37.480928571912976], [127.13843143230751, 37.481015825631935], [127.13841485479728, 37.48098428074286], [127.13843146464687, 37.481015820641886], [127.13853574827156, 37.48122437186558], [127.13860911188418, 37.481375440418205], [127.13857608891603, 37.48130750918671], [127.13864670637885, 37.481452921752776], [127.13868119629585, 37.48151820387251], [127.13871961903719, 37.48158208374518], [127.13871965317317, 37.48158212936804], [127.13876181290608, 37.48164443092157], [127.13880760093443, 37.48170510497286]], [[127.13884159408309, 37.48174624103062], [127.13883103259032, 37.48173341604406], [127.13884162552412, 37.48174623604061], [127.13884163271064, 37.4817462609906], [127.13884159408309, 37.48174624103062]]]]}, "properties": {"zonename": "위례 택지개발사업 예정지구"}, "id": "LT_C_LHZONE.1176"}]}